1 25420U 98046H   16218.46758480  .00000008  00000-0  54567-4 0  9999,2 25420  44.9999 305.2265 0003582 295.2460 127.8817 14.32367181939784
1 25420U 98046H   16218.76408602 +.00000023 +00000-0 +59995-4 0  9997,2 25420 044.9998 303.8335 0003573 296.4306 217.0885 14.32367357938733
1 25420U 98046H   16219.73849119  .00000058  00000-0  72876-4 0  9998,2 25420  44.9997 299.2556 0003564 300.0107 202.9024 14.32367858939966
1 25420U 98046H   16221.17976190  .00000085  00000-0  82649-4 0  9998,2 25420  44.9995 292.4842 0003534 305.2902  76.7475 14.32368518940170
1 25420U 98046H   16222.23003574  .00000103  00000-0  89249-4 0  9997,2 25420  44.9993 287.5499 0003496 309.3621  93.6712 14.32369089940324
1 25420U 98046H   16223.49400150  .00000115  00000-0  93665-4 0  9997,2 25420  44.9991 281.6116 0003452 314.3401 132.6638 14.32369815940505
1 25420U 98046H   16223.71586191 +.00000121 +00000-0 +95680-4 0  9998,2 25420 044.9990 280.5693 0003448 315.2651 196.8736 14.32369972939440
1 25420U 98046H   16224.69213904 +.00000089 +00000-0 +84254-4 0  9993,2 25420 044.9988 275.9825 0003407 319.1294 192.0739 14.32370295940671
1 25420U 98046H   16225.66872513 +.00000079 +00000-0 +80330-4 0  9998,2 25420 044.9987 271.3942 0003360 323.0543 188.8096 14.32370699939720
1 25420U 98046H   16226.64547631 +.00000062 +00000-0 +74154-4 0  9996,2 25420 044.9985 266.8051 0003316 327.1159 186.2615 14.32371012939861
1 25420U 98046H   16227.62058168 +.00000054 +00000-0 +71145-4 0  9995,2 25420 044.9985 262.2237 0003270 331.1555 175.2422 14.32371317940001
1 25420U 98046H   16228.59625369  .00000068  00000-0  76361-4 0  9995,2 25420  44.9984 257.6396 0003218 335.3042 167.0398 14.32371698941232
1 25420U 98046H   16230.17991375  .00000062  00000-0  74396-4 0  9995,2 25420  44.9982 250.1989 0003118 342.2332  54.1999 14.32372170941468
1 25420U 98046H   16231.38425765  .00000042  00000-0  66731-4 0  9996,2 25420  44.9982 244.5406 0003050 347.8646 144.8127 14.32372492941639
1 25420U 98046H   16232.50723019  .00000020  00000-0  58676-4 0  9999,2 25420  44.9980 239.2645 0002979 353.2923 175.6315 14.32372857941794
1 25420U 98046H   16232.57387425 +.00000017 +00000-0 +57844-4 0  9995,2 25420 044.9980 238.9514 0002972 353.6093 159.2994 14.32372882940710
1 25420U 98046H   16233.54979551  .00000007  00000-0  54082-4 0  9990,2 25420  44.9980 234.3661 0002911 358.4118 151.7363 14.32373244941943
1 25420U 98046H   16235.13354829 -.00000004  00000-0  50022-4 0  9990,2 25420  44.9979 226.9249 0002812   6.4401  38.2849 14.32373761942173
1 25420U 98046H   16236.18289956  .00000003  00000-0  52683-4 0  9997,2 25420  44.9979 221.9946 0002752  12.0576  48.9195 14.32374074942328
1 25420U 98046H   16237.45054838  .00000041  00000-0  66377-4 0  9994,2 25420  44.9980 216.0386 0002683  19.1809 104.7988 14.32374590942507
1 25420U 98046H   16239.11127387  .00000065  00000-0  75168-4 0  9993,2 25420  44.9982 208.2357 0002586  28.7948  27.0674 14.32375237942746
1 25420U 98046H   16240.16069424  .00000064  00000-0  74946-4 0  9999,2 25420  44.9983 203.3051 0002542  35.2308  37.2474 14.32375685942893
1 25420U 98046H   16241.20954388  .00000075  00000-0  79038-4 0  9996,2 25420  44.9984 198.3773 0002499  41.8348  44.3155 14.32376281943042
1 25420U 98046H   16242.34076515  .00000089  00000-0  84205-4 0  9996,2 25420  44.9985 193.0625 0002453  49.2404 115.7482 14.32376987943203
1 25420U 98046H   16242.94602933 +.00000096 +00000-0 +86792-4 0  9992,2 25420 044.9985 190.2187 0002429 053.1934 355.8890 14.32377393942201
1 25420U 98046H   16243.84876535  .00000080  00000-0  80897-4 0  9996,2 25420  44.9986 185.9774 0002401  59.0578 329.5296 14.32377711943421
1 25420U 98046H   16243.92206966 +.00000087 +00000-0 +83436-4 0  9999,2 25420 044.9986 185.6330 0002398 059.5801 347.3706 14.32377808942346
1 25420U 98046H   16244.89826578 +.00000114 +00000-0 +93282-4 0  9994,2 25420 044.9986 181.0465 0002377 066.2288 339.3963 14.32378372942484
1 25420U 98046H   16245.19492016  .00000121  00000-0  95987-4 0  9996,2 25420  44.9986 179.6528 0002377  68.2206  68.5979 14.32378536943615
1 25420U 98046H   16246.24463936  .00000224  00000-0  13377-3 0  9998,2 25420  44.9986 174.7208 0002374  75.4671  79.5226 14.32379614943760
1 25420U 98046H   16247.28787133  .00000233  00000-0  13709-3 0  9990,2 25420  44.9986 169.8193 0002394  82.7115  56.9665 14.32380163943918
1 25420U 98046H   16247.91041360 +.00000231 +00000-0 +13623-3 0  9998,2 25420 044.9987 166.8943 0002409 087.1174 025.8421 14.32380526942917
1 25420U 98046H   16248.80244822  .00000240  00000-0  13933-3 0  9999,2 25420  44.9987 162.7032 0002434  93.2332 304.0077 14.32381201944139
1 25420U 98046H   16248.87049400 +.00000234 +00000-0 +13743-3 0  9993,2 25420 044.9988 162.3836 0002442 093.6941 294.7685 14.32381225943053
1 25420U 98046H   16249.84732876  .00000215  00000-0  13039-3 0  9994,2 25420  44.9988 157.7942 0002473 100.3483 290.0986 14.32381906944285
1 25420U 98046H   16249.92015279 +.00000214 +00000-0 +12984-3 0  9991,2 25420 044.9988 157.4520 0002476 100.8555 305.4766 14.32381966943206
1 25420U 98046H   16251.12909962  .00000161  00000-0  11038-3 0  9997,2 25420  44.9989 151.7722 0002519 108.7592  57.6182 14.32382622944461
1 25420U 98046H   16252.50253443  .00000117  00000-0  94358-4 0  9994,2 25420  44.9989 145.3194 0002596 117.9147 297.5242 14.32383282944663
1 25420U 98046H   16252.86441499 +.00000093 +00000-0 +85689-4 0  9993,2 25420 044.9989 143.6191 0002619 120.3514 002.9546 14.32383336943623
1 25420U 98046H   16253.75596525 +.00000092 +00000-0 +85189-4 0  9997,2 25420 044.9988 139.4304 0002672 125.9937 279.1015 14.32383752944846
1 25420U 98046H   16254.80121189  .00000090  00000-0  84302-4 0  9998,2 25420  44.9987 134.5195 0002751 132.5417 267.6567 14.32384135944990
1 25420U 98046H   16254.87454231 +.00000075 +00000-0 +78911-4 0  9994,2 25420 044.9987 134.1749 0002759 132.9938 285.7039 14.32384074943919
1 25420U 98046H   16255.85061421  .00000085  00000-0  82495-4 0  9991,2 25420  44.9986 129.5889 0002845 138.9006 277.8526 14.32384461945149
1 25420U 98046H   16255.92407060 +.00000085 +00000-0 +82746-4 0  9991,2 25420 044.9986 129.2438 0002849 139.3428 296.5601 14.32384483944069
1 25420U 98046H   16256.98121053  .00000078  00000-0  80224-4 0  9994,2 25420  44.9985 124.2768 0002932 145.4693 346.9280 14.32384815945304
1 25420U 98046H   16258.43195943  .00000044  00000-0  67721-4 0  9995,2 25420  44.9985 117.4605 0003049 153.6531 266.8789 14.32385240945510
1 25420U 98046H   16258.71949947 +.00000049 +00000-0 +69289-4 0  9993,2 25420 044.9985 116.1094 0003088 155.2279 309.4616 14.32385426944460
1 25420U 98046H   16259.68528793  .00000059  00000-0  73045-4 0  9998,2 25420  44.9986 111.5717 0003182 160.4558 249.2170 14.32385986945698
1 25420U 98046H   16260.74624263  .00000078  00000-0  79978-4 0  9998,2 25420  44.9987 106.5868 0003284 166.1165 319.7487 14.32386664945845
1 25420U 98046H   16260.95826521 +.00000087 +00000-0 +83251-4 0  9991,2 25420 044.9987 105.5907 0003296 167.1797 333.0550 14.32386807944784
1 25420U 98046H   16261.77995008  .00000091  00000-0  84670-4 0  9990,2 25420  44.9987 101.7299 0003386 171.4685 249.9517 14.32387221945993
1 25420U 98046H   16261.93560654 +.00000093 +00000-0 +85684-4 0  9991,2 25420 044.9987 100.9986 0003397 172.2985 332.5537 14.32387296944926
1 25420U 98046H   16262.82974383  .00000094  00000-0  85907-4 0  9997,2 25420  44.9988  96.7975 0003497 176.9030 263.1044 14.32387679946143
1 25420U 98046H   16262.91104904 +.00000095 +00000-0 +86441-4 0  9996,2 25420 044.9988 096.4155 0003504 177.2832 322.3869 14.32387718945060
1 25420U 98046H   16263.88650425  .00000116  00000-0  93970-4 0  9996,2 25420  44.9987  91.8322 0003610 182.1583 312.3972 14.32388227946296
1 25420U 98046H   16263.95978084 +.00000118 +00000-0 +94567-4 0  9993,2 25420 044.9987 091.4879 0003615 182.5038 330.2745 14.32388266945214
1 25420U 98046H   16265.54175140  .00000111  00000-0  92220-4 0  9999,2 25420  44.9988  84.0549 0003778 190.1490 208.0934 14.32388948946539
1 25420U 98046H   16265.91280003 +.00000101 +00000-0 +88536-4 0  9999,2 25420 044.9988 082.3115 0003810 191.8192 321.6202 14.32389081945496
1 25420U 98046H   16266.60126678  .00000112  00000-0  92362-4 0  9997,2 25420  44.9988  79.0766 0003887 195.0808 271.9356 14.32389517946688
1 25420U 98046H   16267.93774953  .00000096  00000-0  86689-4 0  9995,2 25420  44.9990  72.7970 0003975 201.2070 324.1748 14.32390149946877
1 25420U 98046H   16269.44572825  .00000120  00000-0  95421-4 0  9999,2 25420  44.9993  65.7116 0004101 208.0421 180.8998 14.32391091947097
1 25420U 98046H   16270.49519684  .00000122  00000-0  96086-4 0  9990,2 25420  44.9995  60.7806 0004233 212.7159 193.1498 14.32391644947249
1 25420U 98046H   16271.90880263  .00000164  00000-0  11148-3 0  9992,2 25420  44.9997  54.1391 0004348 218.9472 283.3711 14.32392535947442
1 25420U 98046H   16272.71820072  .00000466  00000-0  17051-3 0  9998,2 25420  44.9990  50.3377 0004404 222.2044 137.8943 14.32393181947564
1 25420U 98046H   16272.73681199  .00000315  00000-0  16684-3 0  9999,2 25420  45.0000  50.2492 0004461 222.1897 234.0258 14.32408382947562
1 25420U 98046H   16272.88480001 +.00000330 +00000-0 +17234-3 0  9993,2 25420 045.0001 049.5540 0004463 222.9419 277.1359 14.32408593946493
1 25420U 98046H   16273.78640531  .00000339  00000-0  17575-3 0  9996,2 25420  45.0001  45.3178 0004526 226.9173 246.9313 14.32409280947719
1 25420U 98046H   16274.83659238  .00000313  00000-0  16603-3 0  9990,2 25420  45.0003  40.3835 0004608 231.1854 263.3639 14.32409905947865
1 25420U 98046H   16275.88624234  .00000117  00000-0  94453-4 0  9996,2 25420  45.0003  35.4516 0004700 235.7888 276.6899 14.32410035948015
1 25420U 98046H   16277.12307591  .00000064  00000-0  74879-4 0  9990,2 25420  45.0004  29.6403 0004783 241.0321 175.5549 14.32410462948191
1 25420U 98046H   16278.17175505  .00000040  00000-0  66012-4 0  9998,2 25420  45.0005  24.7131 0004838 245.4424 184.0654 14.32410789948340
